FLOCK 4G-21             
1 62651U 25009AU  26068.19487675  .00013648  00000+0  49619-3 0  9998
2 62651  97.4032 151.1274 0000465 329.5782  30.5431 15.28381075 63677
STARLINK-32919          
1 63150U 25043U   26068.23962019  .00030852  00000+0  11255-2 0  9996
2 63150  43.0058  18.7595 0001897 255.7736 104.2905 15.27591813 57298
